{"type": "FeatureCollection", "features": [ {"type": "Feature", "properties": {"norad_id": 43648, "name": "BEIDOU-3 M15 (C34)", "group": "gnss", "lat": 51.97410567294076, "lon": 59.35144844856271, "alt_km": 21520.8926240003, "timestamp": "2025-12-17T19:34:08.282140+00:00", "meta": {"OBJECT_NAME": "BEIDOU-3 M15 (C34)", "OBJECT_ID": "2018-078B", "EPOCH": "2025-12-16T14:04:39.514944", "MEAN_MOTION": 1.86232061, "ECCENTRICITY": 0.00038021, "INCLINATION": 54.2541, "RA_OF_ASC_NODE": 306.3868, "ARG_OF_PERICENTER": 19.0085, "MEAN_ANOMALY": 340.9923, "EPHEMERIS_TYPE": 0, "CLASSIFICATION_TYPE": "U", "NORAD_CAT_ID": 43648, "ELEMENT_SET_NO": 999, "REV_AT_EPOCH": 4877, "BSTAR": 0, "MEAN_MOTION_DOT": -9.5e-07, "MEAN_MOTION_DDOT": 0}, "tle": {"line1": "1 43648U 18078B   25350.58656846 -.00000095  00000+0  00000+0 0  9995", "line2": "2 43648  54.2541 306.3868 0003802  19.0085 340.9923  1.86232061 48773"}}, "geometry": {"type": "Point", "coordinates": [59.35144844856271, 51.97410567294076]}}, {"type": "Feature", "properties": {"norad_id": 43683, "name": "BEIDOU-3 G1 (C59)", "group": "gnss", "lat": 2.211899671580758, "lon": 160.23332153631577, "alt_km": 35779.66427297081, "timestamp": "2025-12-17T19:34:08.282154+00:00", "meta": {"OBJECT_NAME": "BEIDOU-3 G1 (C59)", "OBJECT_ID": "2018-085A", "EPOCH": "2025-12-17T05:25:52.953312", "MEAN_MOTION": 1.00269602, "ECCENTRICITY": 0.00016351, "INCLINATION": 2.6187, "RA_OF_ASC_NODE": 102.8353, "ARG_OF_PERICENTER": 50.2026, "MEAN_ANOMALY": 154.5877, "EPHEMERIS_TYPE": 0, "CLASSIFICATION_TYPE": "U", "NORAD_CAT_ID": 43683, "ELEMENT_SET_NO": 999, "REV_AT_EPOCH": 2623, "BSTAR": 0, "MEAN_MOTION_DOT": -2.55e-06, "MEAN_MOTION_DDOT": 0}, "tle": {"line1": "1 43683U 18085A   25351.22630733 -.00000255  00000+0  00000+0 0  9999", "line2": "2 43683   2.6187 102.8353 0001635  50.2026 154.5877  1.00269602 26238"}}, "geometry": {"type": "Point", "coordinates": [160.23332153631577, 2.211899671580758]}}, {"type": "Feature", "properties": {"norad_id": 43687, "name": "COSMOS 2529 (757)", "group": "gnss", "lat": -1.8142709946625064, "lon": 19.595370363843493, "alt_km": 19124.9742161094, "timestamp": "2025-12-17T19:34:08.282165+00:00", "meta": {"OBJECT_NAME": "COSMOS 2529 (757)", "OBJECT_ID": "2018-086A", "EPOCH": "2025-12-17T02:36:34.858656", "MEAN_MOTION": 2.13102066, "ECCENTRICITY": 0.00070854, "INCLINATION": 64.292, "RA_OF_ASC_NODE": 198.7408, "ARG_OF_PERICENTER": 253.7168, "MEAN_ANOMALY": 106.2877, "EPHEMERIS_TYPE": 0, "CLASSIFICATION_TYPE": "U", "NORAD_CAT_ID": 43687, "ELEMENT_SET_NO": 999, "REV_AT_EPOCH": 5540, "BSTAR": 0, "MEAN_MOTION_DOT": 1.11e-06, "MEAN_MOTION_DDOT": 0}, "tle": {"line1": "1 43687U 18086A   25351.10873679  .00000111  00000+0  00000+0 0  9999", "line2": "2 43687  64.2920 198.7408 0007085 253.7168 106.2877  2.13102066 55408"}}, "geometry": {"type": "Point", "coordinates": [19.595370363843493, -1.8142709946625064]}}, {"type": "Feature", "properties": {"norad_id": 43706, "name": "BEIDOU-3 M17 (C36)", "group": "gnss", "lat": -2.0247239601615155, "lon": -173.00808242159528, "alt_km": 21517.77180397846, "timestamp": "2025-12-17T19:34:08.282177+00:00", "meta": {"OBJECT_NAME": "BEIDOU-3 M17 (C36)", "OBJECT_ID": "2018-093A", "EPOCH": "2025-12-15T07:56:44.520576", "MEAN_MOTION": 1.86228523, "ECCENTRICITY": 0.00061371, "INCLINATION": 54.1729, "RA_OF_ASC_NODE": 188.5337, "ARG_OF_PERICENTER": 307.6759, "MEAN_ANOMALY": 184.25, "EPHEMERIS_TYPE": 0, "CLASSIFICATION_TYPE": "U", "NORAD_CAT_ID": 43706, "ELEMENT_SET_NO": 999, "REV_AT_EPOCH": 4811, "BSTAR": 0, "MEAN_MOTION_DOT": 1.13e-06, "MEAN_MOTION_DDOT": 0}, "tle": {"line1": "1 43706U 18093A   25349.33107084  .00000113  00000+0  00000+0 0  9993", "line2": "2 43706  54.1729 188.5337 0006137 307.6759 184.2500  1.86228523 48110"}}, "geometry": {"type": "Point", "coordinates": [-173.00808242159528, -2.0247239601615155]}}, {"type": "Feature", "properties": {"norad_id": 43707, "name": "BEIDOU-3 M18 (C37)", "group": "gnss", "lat": 54.14138530107431, "lon": -80.86603459805889, "alt_km": 21524.308166733466, "timestamp": "2025-12-17T19:34:08.282188+00:00", "meta": {"OBJECT_NAME": "BEIDOU-3 M18 (C37)", "OBJECT_ID": "2018-093B", "EPOCH": "2025-12-16T14:33:42.784416", "MEAN_MOTION": 1.8622677, "ECCENTRICITY": 0.00063186, "INCLINATION": 54.1735, "RA_OF_ASC_NODE": 188.4822, "ARG_OF_PERICENTER": 353.2257, "MEAN_ANOMALY": 6.8349, "EPHEMERIS_TYPE": 0, "CLASSIFICATION_TYPE": "U", "NORAD_CAT_ID": 43707, "ELEMENT_SET_NO": 999, "REV_AT_EPOCH": 4813, "BSTAR": 0, "MEAN_MOTION_DOT": 1.15e-06, "MEAN_MOTION_DDOT": 0}, "tle": {"line1": "1 43707U 18093B   25350.60674519  .00000115  00000+0  00000+0 0  9990", "line2": "2 43707  54.1735 188.4822 0006318 353.2257   6.8349  1.86226770 48131"}}, "geometry": {"type": "Point", "coordinates": [-80.86603459805889, 54.14138530107431]}}, {"type": "Feature", "properties": {"norad_id": 43873, "name": "GPS BIII-1  (PRN 04)", "group": "gnss", "lat": -22.99890869943524, "lon": -63.7547314266995, "alt_km": 20089.232437121653, "timestamp": "2025-12-17T19:34:08.282201+00:00", "meta": {"OBJECT_NAME": "GPS BIII-1  (PRN 04)", "OBJECT_ID": "2018-109A", "EPOCH": "2025-12-15T18:29:34.483200", "MEAN_MOTION": 2.00553802, "ECCENTRICITY": 0.00374359, "INCLINATION": 55.5688, "RA_OF_ASC_NODE": 99.4273, "ARG_OF_PERICENTER": 195.145, "MEAN_ANOMALY": 336.5518, "EPHEMERIS_TYPE": 0, "CLASSIFICATION_TYPE": "U", "NORAD_CAT_ID": 43873, "ELEMENT_SET_NO": 999, "REV_AT_EPOCH": 5139, "BSTAR": 0, "MEAN_MOTION_DOT": -3.2e-07, "MEAN_MOTION_DDOT": 0}, "tle": {"line1": "1 43873U 18109A   25349.77053800 -.00000032  00000+0  00000+0 0  9991", "line2": "2 43873  55.5688  99.4273 0037435 195.1450 336.5518  2.00553802 51399"}}, "geometry": {"type": "Point", "coordinates": [-63.7547314266995, -22.99890869943524]}}, {"type": "Feature", "properties": {"norad_id": 44204, "name": "BEIDOU-3 IGSO-1 (C38)", "group": "gnss", "lat": 58.33544597825457, "lon": 135.09846787011125, "alt_km": 35859.25972014703, "timestamp": "2025-12-17T19:34:08.282213+00:00", "meta": {"OBJECT_NAME": "BEIDOU-3 IGSO-1 (C38)", "OBJECT_ID": "2019-023A", "EPOCH": "2025-11-19T14:15:02.708640", "MEAN_MOTION": 1.00252177, "ECCENTRICITY": 0.0026966, "INCLINATION": 58.4003, "RA_OF_ASC_NODE": 39.8168, "ARG_OF_PERICENTER": 221.2202, "MEAN_ANOMALY": 126.9723, "EPHEMERIS_TYPE": 0, "CLASSIFICATION_TYPE": "U", "NORAD_CAT_ID": 44204, "ELEMENT_SET_NO": 999, "REV_AT_EPOCH": 510, "BSTAR": 0, "MEAN_MOTION_DOT": -2.26e-06, "MEAN_MOTION_DDOT": 0}, "tle": {"line1": "1 44204U 19023A   25323.59378135 -.00000226  00000+0  00000+0 0  9994", "line2": "2 44204  58.4003  39.8168 0026966 221.2202 126.9723  1.00252177  5102"}}, "geometry": {"type": "Point", "coordinates": [135.09846787011125, 58.33544597825457]}}, {"type": "Feature", "properties": {"norad_id": 44231, "name": "BEIDOU-2 G8 (C01)", "group": "gnss", "lat": 1.675288136718305, "lon": 164.61299648139348, "alt_km": 35823.269870361495, "timestamp": "2025-12-17T19:34:08.282230+00:00", "meta": {"OBJECT_NAME": "BEIDOU-2 G8 (C01)", "OBJECT_ID": "2019-027A", "EPOCH": "2025-12-17T05:27:07.832736", "MEAN_MOTION": 1.00267064, "ECCENTRICITY": 0.00087557, "INCLINATION": 1.6731, "RA_OF_ASC_NODE": 74.724, "ARG_OF_PERICENTER": 258.6065, "MEAN_ANOMALY": 338.9898, "EPHEMERIS_TYPE": 0, "CLASSIFICATION_TYPE": "U", "NORAD_CAT_ID": 44231, "ELEMENT_SET_NO": 999, "REV_AT_EPOCH": 2425, "BSTAR": 0, "MEAN_MOTION_DOT": -2.25e-06, "MEAN_MOTION_DDOT": 0}, "tle": {"line1": "1 44231U 19027A   25351.22717399 -.00000225  00000+0  00000+0 0  9997", "line2": "2 44231   1.6731  74.7240 0008755 258.6065 338.9898  1.00267064 24252"}}, "geometry": {"type": "Point", "coordinates": [164.61299648139348, 1.675288136718305]}}, {"type": "Feature", "properties": {"norad_id": 44299, "name": "COSMOS 2534 (758)", "group": "gnss", "lat": -38.340725577596295, "lon": 176.40079168644783, "alt_km": 19115.824180275984, "timestamp": "2025-12-17T19:34:08.282244+00:00", "meta": {"OBJECT_NAME": "COSMOS 2534 (758)", "OBJECT_ID": "2019-030A", "EPOCH": "2025-12-15T05:49:22.027584", "MEAN_MOTION": 2.13102219, "ECCENTRICITY": 0.00088073, "INCLINATION": 64.3657, "RA_OF_ASC_NODE": 198.8086, "ARG_OF_PERICENTER": 283.8967, "MEAN_ANOMALY": 218.9019, "EPHEMERIS_TYPE": 0, "CLASSIFICATION_TYPE": "U", "NORAD_CAT_ID": 44299, "ELEMENT_SET_NO": 999, "REV_AT_EPOCH": 5100, "BSTAR": 0, "MEAN_MOTION_DOT": 1.03e-06, "MEAN_MOTION_DDOT": 0}, "tle": {"line1": "1 44299U 19030A   25349.24261606  .00000103  00000+0  00000+0 0  9993", "line2": "2 44299  64.3657 198.8086 0008807 283.8967 218.9019  2.13102219 51004"}}, "geometry": {"type": "Point", "coordinates": [176.40079168644783, -38.340725577596295]}}, {"type": "Feature", "properties": {"norad_id": 44337, "name": "BEIDOU-3 IGSO-2 (C39)", "group": "gnss", "lat": -16.685164503162667, "lon": 148.4020577832851, "alt_km": 35904.71432601828, "timestamp": "2025-12-17T19:34:08.282256+00:00", "meta": {"OBJECT_NAME": "BEIDOU-3 IGSO-2 (C39)", "OBJECT_ID": "2019-035A", "EPOCH": "2025-12-16T20:46:49.083168", "MEAN_MOTION": 1.00270089, "ECCENTRICITY": 0.00374411, "INCLINATION": 55.2266, "RA_OF_ASC_NODE": 160.465, "ARG_OF_PERICENTER": 202.4261, "MEAN_ANOMALY": 154.0265, "EPHEMERIS_TYPE": 0, "CLASSIFICATION_TYPE": "U", "NORAD_CAT_ID": 44337, "ELEMENT_SET_NO": 999, "REV_AT_EPOCH": 2383, "BSTAR": 0, "MEAN_MOTION_DOT": -3.9e-07, "MEAN_MOTION_DDOT": 0}, "tle": {"line1": "1 44337U 19035A   25350.86584587 -.00000039  00000+0  00000+0 0  9996", "line2": "2 44337  55.2266 160.4650 0037441 202.4261 154.0265  1.00270089 23833"}}, "geometry": {"type": "Point", "coordinates": [148.4020577832851, -16.685164503162667]}}]}